STARLINK-32774          
1 62737U 25014C   25212.77212046  .00022002  00000+0  80614-3 0  9995
2 62737  43.0004 325.2438 0001405 256.3176 103.7519 15.27601924 29436
STARLINK-32802          
1 62738U 25014D   25212.63286004  .00022232  00000+0  81546-3 0  9996
2 62738  43.0032 322.4534 0000266  11.2647 348.8211 15.27560202 29455
STARLINK-32796          
1 62739U 25014E   25212.63029346  .00030124  00000+0  10994-2 0  9998
2 62739  43.0064 322.4351 0002550 265.0076  95.0485 15.27588842 29455
STARLINK-32805          
1 62740U 25014F   25212.75347862  .00028256  00000+0  10313-2 0  9997
2 62740  43.0006 322.5075 0000994 285.6981  74.3761 15.27615548 29462
STARLINK-32770          
1 62741U 25014G   25212.38157858  .00021397  00000+0  78469-3 0  9997
2 62741  43.0003 324.0069 0001075 243.3440 116.7301 15.27586017 29416
STARLINK-32775          
1 62742U 25014H   25212.65469071  .00035371  00000+0  12881-2 0  9993
2 62742  43.0006 322.6152 0001572 280.5453  79.5222 15.27596042 29457
STARLINK-32800          
1 62743U 25014J   25212.62559544  .00035689  00000+0  12993-2 0  9992
2 62743  42.9983 330.1821 0000365  99.9583 260.1309 15.27602044 29366
STARLINK-32758          
1 62744U 25014K   25212.91668981  .00003455  00000+0  13507-3 0  9990
2 62744  43.0017 324.5953 0001494 264.5564 100.6795 15.27571442 29457
STARLINK-32746          
1 62745U 25014L   25212.75718478  .00025985  00000+0  94970-3 0  9995
2 62745  43.0022 321.6645 0001423 274.4279  85.6410 15.27606326 29473
STARLINK-32780          
1 62746U 25014M   25212.35987825  .00021398  00000+0  78471-3 0  9998
2 62746  43.0015 324.7066 0001476 254.0281 106.0408 15.27586422 29404
STARLINK-32765          
1 62747U 25014N   25212.59957868  .00030579  00000+0  11150-2 0  9990
2 62747  43.0014 323.0656 0000230 204.9376 155.1465 15.27613485 29449
STARLINK-32762          
1 62748U 25014P   25212.77469037  .00027979  00000+0  10215-2 0  9998
2 62748  43.0023 325.2596 0001536 265.4584  94.6092 15.27609283 29433
STARLINK-32761          
1 62749U 25014Q   25212.38495135  .00023690  00000+0  86754-3 0  9992
2 62749  43.0019 327.4918 0001085 236.8693 123.2055 15.27584244 29373
STARLINK-32763          
1 62750U 25014R   25212.37901182  .00023769  00000+0  87020-3 0  9991
2 62750  43.0017 323.9835 0001585 270.6365  89.4305 15.27590078 29417
STARLINK-32759          
1 62751U 25014S   25212.61321348  .00020820  00000+0  76265-3 0  9993
2 62751  43.0002 326.6286 0000567 221.6268 138.4541 15.27636996 29405
STARLINK-32756          
1 62752U 25014T   25212.75476727  .00024672  00000+0  90259-3 0  9999
2 62752  43.0009 322.5083 0000928 270.6388  89.4357 15.27597635 29463
