[{"OBJECT_NAME":"STARLINK-32774","OBJECT_ID":"2025-014C","EPOCH":"2025-07-31T18:31:51.207744","MEAN_MOTION":15.27601924,"ECCENTRICITY":0.0001405,"INCLINATION":43.0004,"RA_OF_ASC_NODE":325.2438,"ARG_OF_PERICENTER":256.3176,"MEAN_ANOMALY":103.7519,"EPHEMERIS_TYPE":0,"CLASSIFICATION_TYPE":"U","NORAD_CAT_ID":62737,"ELEMENT_SET_NO":999,"REV_AT_EPOCH":2943,"BSTAR":0.00080614,"MEAN_MOTION_DOT":0.00022002,"MEAN_MOTION_DDOT":0},{"OBJECT_NAME":"STARLINK-32802","OBJECT_ID":"2025-014D","EPOCH":"2025-07-31T15:11:19.107456","MEAN_MOTION":15.27560202,"ECCENTRICITY":2.66e-5,"INCLINATION":43.0032,"RA_OF_ASC_NODE":322.4534,"ARG_OF_PERICENTER":11.2647,"MEAN_ANOMALY":348.8211,"EPHEMERIS_TYPE":0,"CLASSIFICATION_TYPE":"U","NORAD_CAT_ID":62738,"ELEMENT_SET_NO":999,"REV_AT_EPOCH":2945,"BSTAR":0.00081546,"MEAN_MOTION_DOT":0.00022232,"MEAN_MOTION_DDOT":0},{"OBJECT_NAME":"STARLINK-32796","OBJECT_ID":"2025-014E","EPOCH":"2025-07-31T15:07:37.354944","MEAN_MOTION":15.27588842,"ECCENTRICITY":0.000255,"INCLINATION":43.0064,"RA_OF_ASC_NODE":322.4351,"ARG_OF_PERICENTER":265.0076,"MEAN_ANOMALY":95.0485,"EPHEMERIS_TYPE":0,"CLASSIFICATION_TYPE":"U","NORAD_CAT_ID":62739,"ELEMENT_SET_NO":999,"REV_AT_EPOCH":2945,"BSTAR":0.0010994,"MEAN_MOTION_DOT":0.00030124,"MEAN_MOTION_DDOT":0},{"OBJECT_NAME":"STARLINK-32805","OBJECT_ID":"2025-014F","EPOCH":"2025-07-31T18:05:00.552768","MEAN_MOTION":15.27615548,"ECCENTRICITY":9.94e-5,"INCLINATION":43.0006,"RA_OF_ASC_NODE":322.5075,"ARG_OF_PERICENTER":285.6981,"MEAN_ANOMALY":74.3761,"EPHEMERIS_TYPE":0,"CLASSIFICATION_TYPE":"U","NORAD_CAT_ID":62740,"ELEMENT_SET_NO":999,"REV_AT_EPOCH":2946,"BSTAR":0.0010313,"MEAN_MOTION_DOT":0.00028256,"MEAN_MOTION_DDOT":0},{"OBJECT_NAME":"STARLINK-32770","OBJECT_ID":"2025-014G","EPOCH":"2025-07-31T09:09:28.389312","MEAN_MOTION":15.27586017,"ECCENTRICITY":0.0001075,"INCLINATION":43.0003,"RA_OF_ASC_NODE":324.0069,"ARG_OF_PERICENTER":243.344,"MEAN_ANOMALY":116.7301,"EPHEMERIS_TYPE":0,"CLASSIFICATION_TYPE":"U","NORAD_CAT_ID":62741,"ELEMENT_SET_NO":999,"REV_AT_EPOCH":2941,"BSTAR":0.00078469,"MEAN_MOTION_DOT":0.00021397,"MEAN_MOTION_DDOT":0},{"OBJECT_NAME":"STARLINK-32775","OBJECT_ID":"2025-014H","EPOCH":"2025-07-31T15:42:45.277344","MEAN_MOTION":15.27596042,"ECCENTRICITY":0.0001572,"INCLINATION":43.0006,"RA_OF_ASC_NODE":322.6152,"ARG_OF_PERICENTER":280.5453,"MEAN_ANOMALY":79.5222,"EPHEMERIS_TYPE":0,"CLASSIFICATION_TYPE":"U","NORAD_CAT_ID":62742,"ELEMENT_SET_NO":999,"REV_AT_EPOCH":2945,"BSTAR":0.0012881,"MEAN_MOTION_DOT":0.00035371,"MEAN_MOTION_DDOT":0},{"OBJECT_NAME":"STARLINK-32800","OBJECT_ID":"2025-014J","EPOCH":"2025-07-31T15:00:51.446016","MEAN_MOTION":15.27602044,"ECCENTRICITY":3.65e-5,"INCLINATION":42.9983,"RA_OF_ASC_NODE":330.1821,"ARG_OF_PERICENTER":99.9583,"MEAN_ANOMALY":260.1309,"EPHEMERIS_TYPE":0,"CLASSIFICATION_TYPE":"U","NORAD_CAT_ID":62743,"ELEMENT_SET_NO":999,"REV_AT_EPOCH":2936,"BSTAR":0.0012993,"MEAN_MOTION_DOT":0.00035689,"MEAN_MOTION_DDOT":0},{"OBJECT_NAME":"STARLINK-32758","OBJECT_ID":"2025-014K","EPOCH":"2025-07-31T22:00:01.999584","MEAN_MOTION":15.27571442,"ECCENTRICITY":0.0001494,"INCLINATION":43.0017,"RA_OF_ASC_NODE":324.5953,"ARG_OF_PERICENTER":264.5564,"MEAN_ANOMALY":100.6795,"EPHEMERIS_TYPE":0,"CLASSIFICATION_TYPE":"U","NORAD_CAT_ID":62744,"ELEMENT_SET_NO":999,"REV_AT_EPOCH":2945,"BSTAR":0.00013507,"MEAN_MOTION_DOT":3.455e-5,"MEAN_MOTION_DDOT":0},{"OBJECT_NAME":"STARLINK-32746","OBJECT_ID":"2025-014L","EPOCH":"2025-07-31T18:10:20.764992","MEAN_MOTION":15.27606326,"ECCENTRICITY":0.0001423,"INCLINATION":43.0022,"RA_OF_ASC_NODE":321.6645,"ARG_OF_PERICENTER":274.4279,"MEAN_ANOMALY":85.641,"EPHEMERIS_TYPE":0,"CLASSIFICATION_TYPE":"U","NORAD_CAT_ID":62745,"ELEMENT_SET_NO":999,"REV_AT_EPOCH":2947,"BSTAR":0.0009497,"MEAN_MOTION_DOT":0.00025985,"MEAN_MOTION_DDOT":0},{"OBJECT_NAME":"STARLINK-32780","OBJECT_ID":"2025-014M","EPOCH":"2025-07-31T08:38:13.480800","MEAN_MOTION":15.27586422,"ECCENTRICITY":0.0001476,"INCLINATION":43.0015,"RA_OF_ASC_NODE":324.7066,"ARG_OF_PERICENTER":254.0281,"MEAN_ANOMALY":106.0408,"EPHEMERIS_TYPE":0,"CLASSIFICATION_TYPE":"U","NORAD_CAT_ID":62746,"ELEMENT_SET_NO":999,"REV_AT_EPOCH":2940,"BSTAR":0.00078471,"MEAN_MOTION_DOT":0.00021398,"MEAN_MOTION_DDOT":0},{"OBJECT_NAME":"STARLINK-32765","OBJECT_ID":"2025-014N","EPOCH":"2025-07-31T14:23:23.597952","MEAN_MOTION":15.27613485,"ECCENTRICITY":2.3e-5,"INCLINATION":43.0014,"RA_OF_ASC_NODE":323.0656,"ARG_OF_PERICENTER":204.9376,"MEAN_ANOMALY":155.1465,"EPHEMERIS_TYPE":0,"CLASSIFICATION_TYPE":"U","NORAD_CAT_ID":62747,"ELEMENT_SET_NO":999,"REV_AT_EPOCH":2944,"BSTAR":0.001115,"MEAN_MOTION_DOT":0.00030579,"MEAN_MOTION_DDOT":0},{"OBJECT_NAME":"STARLINK-32762","OBJECT_ID":"2025-014P","EPOCH":"2025-07-31T18:35:33.247968","MEAN_MOTION":15.27609283,"ECCENTRICITY":0.0001536,"INCLINATION":43.0023,"RA_OF_ASC_NODE":325.2596,"ARG_OF_PERICENTER":265.4584,"MEAN_ANOMALY":94.6092,"EPHEMERIS_TYPE":0,"CLASSIFICATION_TYPE":"U","NORAD_CAT_ID":62748,"ELEMENT_SET_NO":999,"REV_AT_EPOCH":2943,"BSTAR":0.0010215,"MEAN_MOTION_DOT":0.00027979,"MEAN_MOTION_DDOT":0},{"OBJECT_NAME":"STARLINK-32761","OBJECT_ID":"2025-014Q","EPOCH":"2025-07-31T09:14:19.796640","MEAN_MOTION":15.27584244,"ECCENTRICITY":0.0001085,"INCLINATION":43.0019,"RA_OF_ASC_NODE":327.4918,"ARG_OF_PERICENTER":236.8693,"MEAN_ANOMALY":123.2055,"EPHEMERIS_TYPE":0,"CLASSIFICATION_TYPE":"U","NORAD_CAT_ID":62749,"ELEMENT_SET_NO":999,"REV_AT_EPOCH":2937,"BSTAR":0.00086754,"MEAN_MOTION_DOT":0.0002369,"MEAN_MOTION_DDOT":0},{"OBJECT_NAME":"STARLINK-32763","OBJECT_ID":"2025-014R","EPOCH":"2025-07-31T09:05:46.621248","MEAN_MOTION":15.27590078,"ECCENTRICITY":0.0001585,"INCLINATION":43.0017,"RA_OF_ASC_NODE":323.9835,"ARG_OF_PERICENTER":270.6365,"MEAN_ANOMALY":89.4305,"EPHEMERIS_TYPE":0,"CLASSIFICATION_TYPE":"U","NORAD_CAT_ID":62750,"ELEMENT_SET_NO":999,"REV_AT_EPOCH":2941,"BSTAR":0.0008702,"MEAN_MOTION_DOT":0.00023769,"MEAN_MOTION_DDOT":0},{"OBJECT_NAME":"STARLINK-32759","OBJECT_ID":"2025-014S","EPOCH":"2025-07-31T14:43:01.644672","MEAN_MOTION":15.27636996,"ECCENTRICITY":5.67e-5,"INCLINATION":43.0002,"RA_OF_ASC_NODE":326.6286,"ARG_OF_PERICENTER":221.6268,"MEAN_ANOMALY":138.4541,"EPHEMERIS_TYPE":0,"CLASSIFICATION_TYPE":"U","NORAD_CAT_ID":62751,"ELEMENT_SET_NO":999,"REV_AT_EPOCH":2940,"BSTAR":0.00076265,"MEAN_MOTION_DOT":0.0002082,"MEAN_MOTION_DDOT":0},{"OBJECT_NAME":"STARLINK-32756","OBJECT_ID":"2025-014T","EPOCH":"2025-07-31T18:06:51.892128","MEAN_MOTION":15.27597635,"ECCENTRICITY":9.28e-5,"INCLINATION":43.0009,"RA_OF_ASC_NODE":322.5083,"ARG_OF_PERICENTER":270.6388,"MEAN_ANOMALY":89.4357,"EPHEMERIS_TYPE":0,"CLASSIFICATION_TYPE":"U","NORAD_CAT_ID":62752,"ELEMENT_SET_NO":999,"REV_AT_EPOCH":2946,"BSTAR":0.00090259,"MEAN_MOTION_DOT":0.00024672,"MEAN_MOTION_DDOT":0}]
